FLOCK 4Q-16             
1 58271U 23174R   26199.80340213  .00013987  00000+0  24683-3 0  9991
2 58271  97.3817 288.6734 0006681  66.8531 293.3424 15.50473661150470
FLOCK 4Q-11             
1 58273U 23174T   26199.77526006  .00013244  00000+0  22978-3 0  9996
2 58273  97.3851 289.2846 0006131  60.9843 299.2022 15.50974343150485
FLOCK 4Q-28             
1 58280U 23174AA  26199.81452561  .00018359  00000+0  25650-3 0  9995
2 58280  97.3879 292.0947 0004564  51.5357 308.6307 15.56900561150669
FLOCK 4Q-27             
1 58282U 23174AC  26199.81585779  .00019845  00000+0  27503-3 0  9995
2 58282  97.3806 291.5001 0003666  58.0257 302.1354 15.57106262150678
FLOCK 4Q-7              
1 58318U 23174BQ  26199.76882865  .00019292  00000+0  26333-3 0  9991
2 58318  97.3904 292.3779 0004200  30.1399 330.0097 15.57520775150663
FLOCK 4Q-2              
1 58320U 23174BS  26199.82469093  .00012618  00000+0  21936-3 0  9994
2 58320  97.3838 289.0468 0004439  39.7975 320.3602 15.50939713150505
FLOCK 4Q-9              
1 58322U 23174BU  26199.77566922  .00015390  00000+0  26210-3 0  9999
2 58322  97.3846 289.1115 0005240  38.5837 321.5789 15.51468399150485
FLOCK 4Q-4              
1 58327U 23174BZ  26199.72883007  .00013650  00000+0  24538-3 0  9993
2 58327  97.3823 288.1691 0005518  65.0881 295.0944 15.49962331150441
FLOCK 4Q-13             
1 58328U 23174CA  26199.77142753  .00012337  00000+0  19946-3 0  9993
2 58328  97.3998 291.5427 0005619  44.8795 315.2911 15.52979261150578
FLOCK 4BE-18            
1 60480U 24149N   26199.80618556  .00010162  00000+0  23411-3 0  9997
2 60480  97.3718 283.8873 0005374 135.2055 224.9627 15.42785680107189
FLOCK 4BE-7             
1 60481U 24149P   26199.77734838  .00015877  00000+0  37954-3 0  9991
2 60481  97.3748 283.1432 0004441 139.2687 220.8892 15.41565116107117
FLOCK 4BE-36            
1 60486U 24149U   26199.76073219  .00009153  00000+0  20536-3 0  9992
2 60486  97.3736 284.5871 0005026 142.8527 217.3070 15.43612741107224
FLOCK 4BE-25            
1 60487U 24149V   26199.68239021  .00007826  00000+0  20083-3 0  9991
2 60487  97.3788 283.0631 0003846 134.4089 225.7472 15.39602608107087
FLOCK 4BE-31            
1 60488U 24149W   26199.76079663  .00011452  00000+0  24267-3 0  9993
2 60488  97.3789 285.5415 0003967 142.4590 217.6937 15.45245590107251
FLOCK 4BE-20            
1 60489U 24149X   26199.53112499  .00007342  00000+0  19307-3 0  9996
2 60489  97.3686 281.7106 0005282 144.5593 215.6004 15.38867209107039
FLOCK 4BE-23            
1 60490U 24149Y   26199.79015894  .00007634  00000+0  20359-3 0  9990
2 60490  97.3773 282.3631 0004916 146.1438 214.0122 15.38422441107058
