{"fetched_at":"2026-07-19T07:04:50.778Z","source":"https://celestrak.org/NORAD/elements/gp.php?GROUP=planet&FORMAT=JSON","constellation":"superdove","records":[{"OBJECT_NAME":"FLOCK 4Q-16","OBJECT_ID":"2023-174R","EPOCH":"2026-07-18T19:16:53.944032","CLASSIFICATION_TYPE":"U","MEAN_MOTION":15.50473661,"ECCENTRICITY":0.0006681,"INCLINATION":97.3817,"RA_OF_ASC_NODE":288.6734,"ARG_OF_PERICENTER":66.8531,"MEAN_ANOMALY":293.3424,"EPHEMERIS_TYPE":0,"NORAD_CAT_ID":58271,"ELEMENT_SET_NO":999,"REV_AT_EPOCH":15047,"BSTAR":0.00024683,"MEAN_MOTION_DOT":0.00013987,"MEAN_MOTION_DDOT":0},{"OBJECT_NAME":"FLOCK 4Q-11","OBJECT_ID":"2023-174T","EPOCH":"2026-07-18T18:36:22.469184","CLASSIFICATION_TYPE":"U","MEAN_MOTION":15.50974343,"ECCENTRICITY":0.0006131,"INCLINATION":97.3851,"RA_OF_ASC_NODE":289.2846,"ARG_OF_PERICENTER":60.9843,"MEAN_ANOMALY":299.2022,"EPHEMERIS_TYPE":0,"NORAD_CAT_ID":58273,"ELEMENT_SET_NO":999,"REV_AT_EPOCH":15048,"BSTAR":0.00022978,"MEAN_MOTION_DOT":0.00013244,"MEAN_MOTION_DDOT":0},{"OBJECT_NAME":"FLOCK 4Q-28","OBJECT_ID":"2023-174AA","EPOCH":"2026-07-18T19:32:55.012704","CLASSIFICATION_TYPE":"U","MEAN_MOTION":15.56900561,"ECCENTRICITY":0.0004564,"INCLINATION":97.3879,"RA_OF_ASC_NODE":292.0947,"ARG_OF_PERICENTER":51.5357,"MEAN_ANOMALY":308.6307,"EPHEMERIS_TYPE":0,"NORAD_CAT_ID":58280,"ELEMENT_SET_NO":999,"REV_AT_EPOCH":15066,"BSTAR":0.0002565,"MEAN_MOTION_DOT":0.00018359,"MEAN_MOTION_DDOT":0},{"OBJECT_NAME":"FLOCK 4Q-27","OBJECT_ID":"2023-174AC","EPOCH":"2026-07-18T19:34:50.113056","CLASSIFICATION_TYPE":"U","MEAN_MOTION":15.57106262,"ECCENTRICITY":0.0003666,"INCLINATION":97.3806,"RA_OF_ASC_NODE":291.5001,"ARG_OF_PERICENTER":58.0257,"MEAN_ANOMALY":302.1354,"EPHEMERIS_TYPE":0,"NORAD_CAT_ID":58282,"ELEMENT_SET_NO":999,"REV_AT_EPOCH":15067,"BSTAR":0.00027503,"MEAN_MOTION_DOT":0.00019845,"MEAN_MOTION_DDOT":0},{"OBJECT_NAME":"FLOCK 4Q-7","OBJECT_ID":"2023-174BQ","EPOCH":"2026-07-18T18:27:06.795360","CLASSIFICATION_TYPE":"U","MEAN_MOTION":15.57520775,"ECCENTRICITY":0.00042,"INCLINATION":97.3904,"RA_OF_ASC_NODE":292.3779,"ARG_OF_PERICENTER":30.1399,"MEAN_ANOMALY":330.0097,"EPHEMERIS_TYPE":0,"NORAD_CAT_ID":58318,"ELEMENT_SET_NO":999,"REV_AT_EPOCH":15066,"BSTAR":0.00026333,"MEAN_MOTION_DOT":0.00019292,"MEAN_MOTION_DDOT":0},{"OBJECT_NAME":"FLOCK 4Q-2","OBJECT_ID":"2023-174BS","EPOCH":"2026-07-18T19:47:33.296352","CLASSIFICATION_TYPE":"U","MEAN_MOTION":15.50939713,"ECCENTRICITY":0.0004439,"INCLINATION":97.3838,"RA_OF_ASC_NODE":289.0468,"ARG_OF_PERICENTER":39.7975,"MEAN_ANOMALY":320.3602,"EPHEMERIS_TYPE":0,"NORAD_CAT_ID":58320,"ELEMENT_SET_NO":999,"REV_AT_EPOCH":15050,"BSTAR":0.00021936,"MEAN_MOTION_DOT":0.00012618,"MEAN_MOTION_DDOT":0},{"OBJECT_NAME":"FLOCK 4Q-9","OBJECT_ID":"2023-174BU","EPOCH":"2026-07-18T18:36:57.820608","CLASSIFICATION_TYPE":"U","MEAN_MOTION":15.51468399,"ECCENTRICITY":0.000524,"INCLINATION":97.3846,"RA_OF_ASC_NODE":289.1115,"ARG_OF_PERICENTER":38.5837,"MEAN_ANOMALY":321.5789,"EPHEMERIS_TYPE":0,"NORAD_CAT_ID":58322,"ELEMENT_SET_NO":999,"REV_AT_EPOCH":15048,"BSTAR":0.0002621,"MEAN_MOTION_DOT":0.0001539,"MEAN_MOTION_DDOT":0},{"OBJECT_NAME":"FLOCK 4Q-4","OBJECT_ID":"2023-174BZ","EPOCH":"2026-07-18T17:29:30.918048","CLASSIFICATION_TYPE":"U","MEAN_MOTION":15.49962331,"ECCENTRICITY":0.0005518,"INCLINATION":97.3823,"RA_OF_ASC_NODE":288.1691,"ARG_OF_PERICENTER":65.0881,"MEAN_ANOMALY":295.0944,"EPHEMERIS_TYPE":0,"NORAD_CAT_ID":58327,"ELEMENT_SET_NO":999,"REV_AT_EPOCH":15044,"BSTAR":0.00024538,"MEAN_MOTION_DOT":0.0001365,"MEAN_MOTION_DDOT":0},{"OBJECT_NAME":"FLOCK 4Q-13","OBJECT_ID":"2023-174CA","EPOCH":"2026-07-18T18:30:51.338592","CLASSIFICATION_TYPE":"U","MEAN_MOTION":15.52979261,"ECCENTRICITY":0.0005619,"INCLINATION":97.3998,"RA_OF_ASC_NODE":291.5427,"ARG_OF_PERICENTER":44.8795,"MEAN_ANOMALY":315.2911,"EPHEMERIS_TYPE":0,"NORAD_CAT_ID":58328,"ELEMENT_SET_NO":999,"REV_AT_EPOCH":15057,"BSTAR":0.00019946,"MEAN_MOTION_DOT":0.00012337,"MEAN_MOTION_DDOT":0},{"OBJECT_NAME":"FLOCK 4BE-18","OBJECT_ID":"2024-149N","EPOCH":"2026-07-18T19:20:54.432384","CLASSIFICATION_TYPE":"U","MEAN_MOTION":15.4278568,"ECCENTRICITY":0.0005374,"INCLINATION":97.3718,"RA_OF_ASC_NODE":283.8873,"ARG_OF_PERICENTER":135.2055,"MEAN_ANOMALY":224.9627,"EPHEMERIS_TYPE":0,"NORAD_CAT_ID":60480,"ELEMENT_SET_NO":999,"REV_AT_EPOCH":10718,"BSTAR":0.00023411,"MEAN_MOTION_DOT":0.00010162,"MEAN_MOTION_DDOT":0},{"OBJECT_NAME":"FLOCK 4BE-7","OBJECT_ID":"2024-149P","EPOCH":"2026-07-18T18:39:22.900032","CLASSIFICATION_TYPE":"U","MEAN_MOTION":15.41565116,"ECCENTRICITY":0.0004441,"INCLINATION":97.3748,"RA_OF_ASC_NODE":283.1432,"ARG_OF_PERICENTER":139.2687,"MEAN_ANOMALY":220.8892,"EPHEMERIS_TYPE":0,"NORAD_CAT_ID":60481,"ELEMENT_SET_NO":999,"REV_AT_EPOCH":10711,"BSTAR":0.00037954,"MEAN_MOTION_DOT":0.00015877,"MEAN_MOTION_DDOT":0},{"OBJECT_NAME":"FLOCK 4BE-36","OBJECT_ID":"2024-149U","EPOCH":"2026-07-18T18:15:27.261216","CLASSIFICATION_TYPE":"U","MEAN_MOTION":15.43612741,"ECCENTRICITY":0.0005026,"INCLINATION":97.3736,"RA_OF_ASC_NODE":284.5871,"ARG_OF_PERICENTER":142.8527,"MEAN_ANOMALY":217.307,"EPHEMERIS_TYPE":0,"NORAD_CAT_ID":60486,"ELEMENT_SET_NO":999,"REV_AT_EPOCH":10722,"BSTAR":0.00020536,"MEAN_MOTION_DOT":0.00009153,"MEAN_MOTION_DDOT":0},{"OBJECT_NAME":"FLOCK 4BE-25","OBJECT_ID":"2024-149V","EPOCH":"2026-07-18T16:22:38.514144","CLASSIFICATION_TYPE":"U","MEAN_MOTION":15.39602608,"ECCENTRICITY":0.0003846,"INCLINATION":97.3788,"RA_OF_ASC_NODE":283.0631,"ARG_OF_PERICENTER":134.4089,"MEAN_ANOMALY":225.7472,"EPHEMERIS_TYPE":0,"NORAD_CAT_ID":60487,"ELEMENT_SET_NO":999,"REV_AT_EPOCH":10708,"BSTAR":0.00020083,"MEAN_MOTION_DOT":0.00007826,"MEAN_MOTION_DDOT":0},{"OBJECT_NAME":"FLOCK 4BE-31","OBJECT_ID":"2024-149W","EPOCH":"2026-07-18T18:15:32.828832","CLASSIFICATION_TYPE":"U","MEAN_MOTION":15.4524559,"ECCENTRICITY":0.0003967,"INCLINATION":97.3789,"RA_OF_ASC_NODE":285.5415,"ARG_OF_PERICENTER":142.459,"MEAN_ANOMALY":217.6937,"EPHEMERIS_TYPE":0,"NORAD_CAT_ID":60488,"ELEMENT_SET_NO":999,"REV_AT_EPOCH":10725,"BSTAR":0.00024267,"MEAN_MOTION_DOT":0.00011452,"MEAN_MOTION_DDOT":0},{"OBJECT_NAME":"FLOCK 4BE-20","OBJECT_ID":"2024-149X","EPOCH":"2026-07-18T12:44:49.199136","CLASSIFICATION_TYPE":"U","MEAN_MOTION":15.38867209,"ECCENTRICITY":0.00052828,"INCLINATION":97.3686,"RA_OF_ASC_NODE":281.7106,"ARG_OF_PERICENTER":144.5593,"MEAN_ANOMALY":215.6004,"EPHEMERIS_TYPE":0,"NORAD_CAT_ID":60489,"ELEMENT_SET_NO":999,"REV_AT_EPOCH":10703,"BSTAR":0.00019307173,"MEAN_MOTION_DOT":0.00007342,"MEAN_MOTION_DDOT":0},{"OBJECT_NAME":"FLOCK 4BE-23","OBJECT_ID":"2024-149Y","EPOCH":"2026-07-18T18:57:49.732416","CLASSIFICATION_TYPE":"U","MEAN_MOTION":15.38422441,"ECCENTRICITY":0.0004916,"INCLINATION":97.3773,"RA_OF_ASC_NODE":282.3631,"ARG_OF_PERICENTER":146.1438,"MEAN_ANOMALY":214.0122,"EPHEMERIS_TYPE":0,"NORAD_CAT_ID":60490,"ELEMENT_SET_NO":999,"REV_AT_EPOCH":10705,"BSTAR":0.00020359,"MEAN_MOTION_DOT":0.00007634,"MEAN_MOTION_DDOT":0}]}
